satname,norad_id,inclination_deg,eccentricity,mean_motion_rev_per_day,perigee_km,apogee_km,l1,l2
STARLINK-1008,44714,53.156,0.0001786,15.3171589,469.46942740035865,471.91582934361213,1 44714U 19074B   26078.56158042  .00010248  00000+0  34138-3 0  9991,2 44714  53.1560 132.8136 0001786  66.9384 293.1805 15.31715890350381
STARLINK-1012,44718,53.1599,0.0002127,15.31029642,471.2818453016607,474.1962079633904,1 44718U 19074F   26078.54688756  .00020872  00000+0  69677-3 0  9993,2 44718  53.1599 132.9950 0002127  53.7471 306.3727 15.31029642350375
STARLINK-1017,44723,53.0532,0.000314,15.25043019,488.4994579311824,492.81306009784294,1 44723U 19074L   26078.31056662  .00015841  00000+0  63782-3 0  9990,2 44723  53.0532 127.0403 0003140  55.7352 304.3942 15.25043019350432
STARLINK-1019,44724,53.0408,2.12e-05,15.83967217,319.09239813017575,319.37636667679,1 44724U 19074M   26078.27474931  .00112630  00000+0  49043-3 0  9997,2 44724  53.0408  88.4112 0000212 358.6915   1.4107 15.83967217350964
STARLINK-1020,44725,53.1617,0.0001661,15.30325225,473.7029159597241,475.9794753163151,1 44725U 19074N   26078.59641413  .00006424  00000+0  22798-3 0  9995,2 44725  53.1617 157.8309 0001661  65.9024 294.2151 15.30325225350022
STARLINK-1031,44736,53.0353,0.0004573,15.95897386,282.76765945369243,288.86251003039797,1 44736U 19074Z   26078.83335647  .00258513  37520-4  62559-3 0  9992,2 44736  53.0353  68.1185 0004573  51.9630 143.8433 15.95897386  6044
STARLINK-1036,44741,53.0485,0.0004896,15.5791814,390.3677168876484,396.99868322754537,1 44741U 19074AE  26078.56219505  .00070461  00000+0  92429-3 0  9993,2 44741  53.0485 140.6772 0004896 339.5257  20.5558 15.57918140350267
STARLINK-1039,44744,53.0539,0.0001526,15.225987,496.95625131108136,499.0548500175437,1 44744U 19074AH  26078.66094515  .00029609  00000+0  12669-2 0  9994,2 44744  53.0539 169.2275 0001526 235.3511 124.7341 15.22598700349878
STARLINK-1042,44747,53.044,0.0001799,15.50290051,414.6562776350502,417.10076441951514,1 44747U 19074AL  26078.19587686  .00018711  00000+0  33203-3 0  9991,2 44747  53.0440  49.1648 0001799 120.9772 239.1414 15.50290051351540
STARLINK-1043,44748,53.0514,0.0002369,15.54315903,402.53522236131175,405.7486661250932,1 44748U 19074AM  26078.56183881  .00021072  00000+0  32288-3 0  9998,2 44748  53.0514 146.8424 0002369  77.3003 282.8272 15.54315903350180
STARLINK-1046,44751,53.0519,0.0003054,15.44718204,430.12632097389724,434.2860786003275,1 44751U 19074AQ  26078.64262888  .00055516  00000+0  11705-2 0  9996,2 44751  53.0519 163.5166 0003054 221.3233 138.7542 15.44718204349958
STARLINK-1047,44752,53.0677,0.000156,15.32773523,466.4738210313217,468.6096728003604,1 44752U 19074AR  26078.27748310  .00007503  00000+0  24504-3 0  9990,2 44752  53.0677 101.2084 0001560 262.0928  97.9895 15.32773523350811
STARLINK-1048,44753,53.0504,0.0001922,15.55271377,400.0608645616194,402.66690470167214,1 44753U 19074AS  26078.55149818  .00062854  00000+0  91150-3 0  9991,2 44753  53.0504 121.2070 0001922  29.6906 330.4213 15.55271377350536
STARLINK-1053,44758,53.0253,0.0006256,15.98957496,273.1463386035193,281.4736338726998,1 44758U 19074AX  26078.83335647  .00374399  69756-4  76090-3 0  9998,2 44758  53.0253  31.3373 0006256 117.0086 287.8002 15.98957496  6051
STARLINK-1063,44768,53.1593,0.000159,15.30811306,472.30103446246085,474.4798201843505,1 44768U 19074BH  26078.54797159 -.00194258  00000+0 -65920-2 0  9994,2 44768  53.1593 173.5869 0001590  44.9681 315.1448 15.30811306349823
STARLINK-1067,44771,53.0504,0.0005413,15.58943163,387.0505290801184,394.3784877231137,1 44771U 19074BL  26078.63509502  .00046750  00000+0  59389-3 0  9995,2 44771  53.0504 155.8510 0005413   6.0567 354.0509 15.58943163350069
STARLINK-1068,44772,53.046,0.0003888,15.65228829,369.9560516897236,375.2054097971495,1 44772U 19074BM  26078.65066935  .00035266  00000+0  35316-3 0  9990,2 44772  53.0460 131.0237 0003888 345.8886  14.2020 15.65228829350409
STARLINK-1114,44927,53.0482,0.0006989,15.52044865,406.0117115691828,415.5012268604514,1 44927U 20001P   26078.85867071  .00070854  00000+0  11520-2 0  9998,2 44927  53.0482 280.4787 0006989 158.3677 201.7628 15.52044865341672
STARLINK-1123,44930,53.1467,8.14e-05,15.29040398,478.12147508563703,479.2377648313659,1 44930U 20001S   26078.83682506  .00042572  00000+0  14936-2 0  9998,2 44930  53.1467 298.0773 0000814  62.1373 297.9709 15.29040398341427
STARLINK-1094,44941,53.1599,0.0001314,15.30193225,474.33476530274675,476.1358315427715,1 44941U 20001AD  26078.74194427  .00002833  00000+0  10776-3 0  9995,2 44941  53.1599 272.8694 0001314  85.0514 275.0637 15.30193225341779
STARLINK-1122,44949,53.1595,0.0001261,15.30200371,474.34975412415224,476.07816923668815,1 44949U 20001AM  26078.76830523  .00002508  00000+0  96790-4 0  9999,2 44949  53.1595 272.7949 0001261  84.5907 275.5237 15.30200371341778
STARLINK-1080,44961,53.051,0.0005094,15.48936204,416.373927510479,423.29970323358066,1 44961U 20001AZ  26078.68711428  .00064396  00000+0  11710-2 0  9996,2 44961  53.0510 240.3585 0005094 155.2361 204.8891 15.48936204342225
STARLINK-1090,44968,53.1553,0.0001514,15.29362367,476.6792556822047,478.75520834365943,1 44968U 20001BG  26078.86986921  .00004109  00000+0  15462-3 0  9990,2 44968  53.1553 259.2021 0001514  93.1410 266.9764 15.29362367341973
STARLINK-1132,45044,53.1555,0.00035,15.44429269,430.67165123564973,435.43948603369427,1 45044U 20006A   26078.75580888  .00061114  00000+0  12994-2 0  9996,2 45044  53.1555 206.2113 0003500 254.8846 105.1774 15.44429269338480
STARLINK-1131,45047,53.1574,0.0001003,15.30189097,474.56022952755575,475.935018483131,1 45047U 20006D   26078.13662903  .00001112  00000+0  49687-4 0  9993,2 45047  53.1574 237.0966 0001003  93.1344 266.9771 15.30189097337990
STARLINK-1134,45048,53.0329,0.0006206,15.45301751,426.26614593508566,434.717015729615,1 45048U 20006E   26078.59125265  .00030340  00000+0  63285-3 0  9993,2 45048  53.0329 191.1688 0006206 219.2167 140.8390 15.45301751338675
STARLINK-1156,45054,53.1606,0.0001226,15.30202455,474.3675191766097,476.04795930667206,1 45054U 20006L   26078.75079659 -.00002887  00000+0 -85389-4 0  9990,2 45054  53.1606 234.2611 0001226  86.6097 273.5044 15.30202455338081
STARLINK-1159,45057,53.0434,0.0001443,15.85002015,315.35305292831254,317.28507294807696,1 45057U 20006P   26078.83335647  .00134199  00000+0  55425-3 0  9991,2 45057  53.0434 183.6024 0001443   8.4239 227.4130 15.85002015  5768
STARLINK-1166,45060,53.0514,0.0002192,15.46979324,424.0770500074377,427.05979446454603,1 45060U 20006S   26078.85461213  .00067802  00000+0  13192-2 0  9996,2 45060  53.0514 224.1942 0002192 201.0592 159.0325 15.46979324338236
STARLINK-1169,45061,53.1587,0.0001124,15.30284411,474.1927565288497,475.7333334189598,1 45061U 20006T   26078.71801977  .00010092  00000+0  35148-3 0  9992,2 45061  53.1587 234.4105 0001124  70.7852 289.3270 15.30284411338085
STARLINK-1171,45062,53.0441,0.0002116,15.64661075,372.78488133130304,375.6424761385442,1 45062U 20006U   26077.78346917  .00044972  00000+0  45861-3 0  9994,2 45062  53.0441 204.8794 0002116  12.9882 347.1187 15.64661075338411
STARLINK-1133,45064,53.1615,7.94e-05,15.30214651,474.6271718422495,475.7154772041822,1 45064U 20006W   26078.65860913 -.00003326  00000+0 -10019-3 0  9997,2 45064  53.1615 211.4947 0000794  41.3822 318.7239 15.30214651338409
STARLINK-1167,45071,53.1528,0.0002635,15.29955834,474.13815164145944,477.7502524349338,1 45071U 20006AD  26078.62518450  .00016441  00000+0  57024-3 0  9995,2 45071  53.1528 211.7412 0002635  80.5941 279.5357 15.29955834338399
STARLINK-1168,45072,53.1605,0.0001569,15.29369881,476.61909616600406,478.7704561773662,1 45072U 20006AE  26078.63645131 -.00001823  00000+0 -50816-4 0  9997,2 45072  53.1605 211.7705 0001569  83.1015 277.0164 15.29369881338397
STARLINK-1172,45074,53.1571,0.0001355,15.30868183,472.29236214977846,474.149080092202,1 45074U 20006AG  26078.63361148  .00011708  00000+0  39855-3 0  9992,2 45074  53.1571 211.6109 0001355  79.7816 280.3337 15.30868183338391
STARLINK-1153,45080,53.1609,0.0001929,15.29946299,474.65052179311715,477.2948373074887,1 45080U 20006AN  26078.80553949  .00018373  00000+0  63585-3 0  9992,2 45080  53.1609 210.8222 0001929  49.0727 311.0441 15.29946299338420
STARLINK-1151,45081,53.0521,0.000263,15.66595443,366.8797771305599,370.42858929292834,1 45081U 20006AP  26078.59172781  .00045661  00000+0  43095-3 0  9994,2 45081  53.0521 191.1220 0002630  20.5371 339.5749 15.66595443338676
STARLINK-1185,45087,53.1596,0.0001479,15.33583525,464.11893321810385,466.14317190805195,1 45087U 20006AV  26078.68941137  .00040259  00000+0  12275-2 0  9992,2 45087  53.1596 195.7728 0001479  35.4518 324.6582 15.33583525338623
STARLINK-1183,45088,53.1607,0.0001259,15.30211986,474.31644909756324,476.04211413727535,1 45088U 20006AW  26078.61533529 -.00001738  00000+0 -46563-4 0  9998,2 45088  53.1607 196.4763 0001259  81.1798 278.9346 15.30211986338601
STARLINK-1152,45096,53.0374,0.0002951,15.39835909,444.5801436538777,448.60809996196895,1 45096U 20006BE  26078.59716758  .00035344  00000+0  88307-3 0  9990,2 45096  53.0374 159.6978 0002951 276.1439  83.9228 15.39835909339113
STARLINK-1184,45098,53.0545,0.0004236,15.10773987,530.9103587404061,536.7661841903919,1 45098U 20006BG  26078.72335179  .00020132  00000+0  12132-2 0  9992,2 45098  53.0545 200.0852 0004236 169.5281 190.5799 15.10773987338556
STARLINK-1193,45100,53.0503,0.0004309,15.57875389,390.88905634998446,396.72511776421015,1 45100U 20006BJ  26078.66466196  .00089659  00000+0  11735-2 0  9990,2 45100  53.0503 182.0698 0004309   9.9088 350.2008 15.57875389338800
STARLINK-1143,45179,53.0446,0.000627,15.65452162,367.7063636919811,376.1709585710405,1 45179U 20012B   26078.83335647  .00146158  00000+0  14136-2 0  9994,2 45179  53.0446 280.1918 0006270 140.9245 105.3388 15.65452162  5975
